GLOBALSTAR M068 [-]     
1 32266U 07048D   24008.60246362 -.00000108  00000+0 -22164-4 0  9990
2 32266  51.9889 104.3474 0001418  91.8520  17.2553 12.62775845751152
GLOBALSTAR M079 [+]     
1 37188U 10054A   24008.95266233 -.00000060  00000+0  24690-3 0  9997
2 37188  52.0059 298.6860 0000484  48.6774  27.5124 12.62265437610120
GLOBALSTAR M074 [+]     
1 37189U 10054B   24008.20298735 -.00000081  00000+0  12962-3 0  9990
2 37189  52.0031 300.3727 0000699  52.4069  95.2676 12.62263858610637
GLOBALSTAR M076 [+]     
1 37190U 10054C   24008.22969780 -.00000089  00000+0  85077-4 0  9995
2 37190  52.0044 300.4180 0000556 357.8767 149.3771 12.62257387610352
GLOBALSTAR M077 [+]     
1 37191U 10054D   24008.83442623 -.00000058  00000+0  25761-3 0  9994
2 37191  52.0062 255.2810 0000999  60.8093  16.0221 12.62268498610809
GLOBALSTAR M075 [+]     
1 37192U 10054E   24008.32218517 -.00000086  00000+0  96718-4 0  9994
2 37192  51.9977 342.6847 0000309  78.7682  68.9577 12.62268977609597
GLOBALSTAR M073 [+]     
1 37193U 10054F   24008.87132713 -.00000060  00000+0  24348-3 0  9999
2 37193  52.0048 254.4283 0000898  66.2427  60.2194 12.62271272611499
GLOBALSTAR M083 [+]     
1 37739U 11033A   24008.71561104 -.00000066  00000+0  20940-3 0  9996
2 37739  51.9831 204.3500 0001182  96.8352 341.7604 12.62264902580492
GLOBALSTAR M088 [+]     
1 37740U 11033B   24008.45154580 -.00000119  00000+0 -83887-4 0  9995
2 37740  51.9734 111.0859 0000993 131.1735 307.4637 12.62269068576009
GLOBALSTAR M091 [+]     
1 37741U 11033C   24008.47073141 -.00000105  00000+0 -82800-5 0  9991
2 37741  52.0006  73.6438 0000867 146.0697 318.8915 12.62269979576794
GLOBALSTAR M085 [+]     
1 37742U 11033D   24008.92605330 -.00000097  00000+0  35516-4 0  9993
2 37742  51.9887  23.7618 0000505 146.4064 288.4920 12.62266277577367
GLOBALSTAR M081 [+]     
1 37743U 11033E   24008.24075231 -.00000090  00000+0  77130-4 0  9991
2 37743  51.9978  28.3107 0000457 166.1673 273.3460 12.62268177577424
GLOBALSTAR M089 [+]     
1 37744U 11033F   24008.12198907 -.00000092  00000+0  64617-4 0  9993
2 37744  51.9958 342.9990 0000340  20.2849  59.8682 12.62270969578251
GLOBALSTAR M084 [+]     
1 38040U 11080A   24008.85292821 -.00000073  00000+0  17158-3 0  9991
2 38040  51.9980 207.7842 0000964  70.4112  31.5094 12.62270048556328
GLOBALSTAR M080 [+]     
1 38041U 11080B   24008.74266955 -.00000068  00000+0  20104-3 0  9998
2 38041  52.0033 209.5429 0000834  62.2800  18.0322 12.62268345556433
GLOBALSTAR M082 [+]     
1 38042U 11080C   24008.76137715 -.00000109  00000+0 -29956-4 0  9994
2 38042  52.0057 164.8734 0001651 106.9050 359.4246 12.62265075557146
GLOBALSTAR M092 [+]     
1 38043U 11080D   24008.97276687 -.00000070  00000+0  18683-3 0  9990
2 38043  52.0072 254.5855 0001084  50.6526  54.3329 12.62240564555628
GLOBALSTAR M090 [+]     
1 38044U 11080E   24008.70835667 -.00000112  00000+0 -43575-4 0  9998
2 38044  51.9868 159.5190 0001261 110.3845 355.6492 12.62265275557256
GLOBALSTAR M086 [+]     
1 38045U 11080F   24008.73441285 -.00000110  00000+0 -37090-4 0  9994
2 38045  51.9881 159.9510 0000838 162.8834 300.7543 12.62266325557201
GLOBALSTAR M097 [+]     
1 39072U 13005A   24008.34186598 -.00000111  00000+0 -42741-4 0  9994
2 39072  52.0061  75.1582 0000819 142.3651 217.7273 12.62273437504404
GLOBALSTAR M093 [+]     
1 39073U 13005B   24008.47364292 -.00000093  00000+0  58291-4 0  9993
2 39073  51.9821  68.9006 0000883 153.2045 206.8867 12.62259819504379
GLOBALSTAR M094 [+]     
1 39074U 13005C   24008.31554585 -.00000103  00000+0  53875-5 0  9999
2 39074  51.9985 343.2411 0000209  94.5476 265.5415 12.62270770505963
GLOBALSTAR M096 [+]     
1 39075U 13005D   24008.48731501 -.00000104  00000+0  11373-7 0  9993
2 39075  52.0092  30.8224 0000551 155.0196 205.0697 12.62267348504909
GLOBALSTAR M078 [+]     
1 39076U 13005E   24008.46086823 -.00000117  00000+0 -71924-4 0  9992
2 39076  51.9876 116.1263 0001734 103.4365 256.6695 12.62258392503524
GLOBALSTAR M095 [+]     
1 39077U 13005F   24008.56618631 -.00000118  00000+0 -79913-4 0  9999
2 39077  51.9799 113.2619 0001471 122.8091 237.2917 12.62272248503394
GLOBALSTAR M087 [+]     
1 52888U 22064A   24008.30453850 -.00000101  00000+0  52720-4 0  9999
2 52888  51.9769  49.3661 0008994 317.3392  42.6810 13.37561922 75997
